[{"OBJECT_NAME":"SWARM B","OBJECT_ID":"2013-067A","EPOCH":"2026-03-09T22:20:48.706656","MEAN_MOTION":15.27862638,"ECCENTRICITY":0.00036996,"INCLINATION":87.749,"RA_OF_ASC_NODE":12.4162,"ARG_OF_PERICENTER":86.3179,"MEAN_ANOMALY":273.8493,"EPHEMERIS_TYPE":0,"CLASSIFICATION_TYPE":"U","NORAD_CAT_ID":39451,"ELEMENT_SET_NO":999,"REV_AT_EPOCH":66808,"BSTAR":0.00020534236,"MEAN_MOTION_DOT":5.616e-5,"MEAN_MOTION_DDOT":0},{"OBJECT_NAME":"STARLINK-30835","OBJECT_ID":"2023-170P","EPOCH":"2026-03-09T22:00:01.999584","MEAN_MOTION":15.26734446,"ECCENTRICITY":0.00013973,"INCLINATION":42.9999,"RA_OF_ASC_NODE":192.6851,"ARG_OF_PERICENTER":265.0727,"MEAN_ANOMALY":222.1467,"EPHEMERIS_TYPE":0,"CLASSIFICATION_TYPE":"U","NORAD_CAT_ID":58219,"ELEMENT_SET_NO":999,"REV_AT_EPOCH":568,"BSTAR":0.0008521032,"MEAN_MOTION_DOT":0.00022663,"MEAN_MOTION_DDOT":0}]
